NORAD_CAT_ID,OBJECT_NAME,OBJECT_TYPE,EPOCH,MEAN_MOTION,ECCENTRICITY,INCLINATION,RA_OF_ASC_NODE,ARG_OF_PERICENTER,MEAN_ANOMALY,BSTAR,MEAN_MOTION_DOT,MEAN_MOTION_DDOT,TLE_LINE0,TLE_LINE1,TLE_LINE2,SEMIMAJOR_AXIS,PERIOD,APOGEE,PERIGEE,DECAYED
53629.0,STARLINK-4602,PAYLOAD,2022-10-02 22:00:00,15.73178634,0.0001318,53.2154,110.8633,97.5413,133.136,0.00065907,0.00092818,0.0,0 STARLINK-4602,1 53629U 22104AT  22275.91667824  .00092818  00000-0  65907-3 0  9993,2 53629  53.2154 110.8633 0001318  97.5413 133.1360 15.73178634  1307,6727.956,91.534,350.708,348.934,0.0
53629.0,STARLINK-4602,PAYLOAD,2022-10-03 14:00:01,15.73208779,9.55e-05,53.2152,107.5624,116.5798,292.0323,0.00030875,0.00042949,0.0,0 STARLINK-4602,1 53629U 22104AT  22276.58334491  .00042949  00000-0  30875-3 0  9994,2 53629  53.2152 107.5624 0000955 116.5798 292.0323 15.73208779  1300,6727.87,91.533,350.37800000000016,349.093,0.0
53629.0,STARLINK-4602,PAYLOAD,2022-10-03 22:00:00,15.73231275,9.09e-05,53.2152,105.9147,95.7734,41.8017,-0.00037666,-0.00053216,0.0,0 STARLINK-4602,1 53629U 22104AT  22276.91667824 -.00053216  00000-0 -37666-3 0  9996,2 53629  53.2152 105.9147 0000909  95.7734  41.8017 15.73231275  1306,6727.806,91.531,350.283,349.059,0.0
53629.0,STARLINK-4602,PAYLOAD,2022-10-04 14:00:01,15.732046100000002,0.0001065,53.2155,102.6136,104.6352,210.8146,-0.00041173,-0.00058016,0.0,0 STARLINK-4602,1 53629U 22104AT  22277.58334491 -.00058016  00000-0 -41173-3 0  9992,2 53629  53.2155 102.6136 0001065 104.6352 210.8146 15.73204610  5927,6727.882,91.533,350.464,349.031,0.0
53629.0,STARLINK-4602,PAYLOAD,2022-10-04 22:00:00,15.731709900000002,0.0001048,53.2154,100.9661,87.3041,317.072,0.00035848,0.00049927,0.0,0 STARLINK-4602,1 53629U 22104AT  22277.91667824  .00049927  00000-0  35848-3 0  9999,2 53629  53.2154 100.9661 0001048  87.3041 317.0720 15.73170990  5979,6727.978,91.535,350.548,349.13800000000015,0.0
53629.0,STARLINK-4602,PAYLOAD,2022-10-05 06:00:00,15.73199392,9.28e-05,53.2152,99.3148,95.2837,38.014,-0.00039894,-0.00056231,0.0,0 STARLINK-4602,1 53629U 22104AT  22278.25001157 -.00056231  00000-0 -39894-3 0  9991,2 53629  53.2152  99.3148 0000928  95.2837  38.0140 15.73199392  6036,6727.897,91.533,350.386,349.13800000000015,0.0
53629.0,STARLINK-4602,PAYLOAD,2022-10-05 14:00:01,15.73197825,0.0001177,53.2151,97.6654,97.0694,125.1783,-0.00035359,-0.00049944,0.0,0 STARLINK-4602,1 53629U 22104AT  22278.58335648 -.00049944  00000-0 -35359-3 0  9997,2 53629  53.2151  97.6654 0001177  97.0694 125.1783 15.73197825  1301,6727.901,91.533,350.55800000000005,348.975,0.0
53629.0,STARLINK-4602,PAYLOAD,2022-10-05 22:00:00,15.73181085,9.93e-05,53.2148,96.0177,82.0857,229.0215,0.00064157,0.00090319,0.0,0 STARLINK-4602,1 53629U 22104AT  22278.91667824  .00090319  00000-0  64157-3 0  9996,2 53629  53.2148  96.0177 0000993  82.0857 229.0215 15.73181085  6131,6727.949000000001,91.534,350.482,349.146,0.0
53629.0,STARLINK-4602,PAYLOAD,2022-10-06 06:00:00,15.73328359,0.0001027,53.2161,94.3652,87.2015,312.8228,-0.0019649999999999,-0.0026921999999999,0.0,0 STARLINK-4602,1 53629U 22104AT  22279.25001157 -.00269220  00000-0 -19650-2 0  9993,2 53629  53.2161  94.3652 0001027  87.2015 312.8228 15.73328359  6184,6727.529,91.526,350.085,348.70300000000015,0.0
53629.0,STARLINK-4602,PAYLOAD,2022-10-06 14:00:01,15.7308469,0.0001044,53.217,92.7134,95.0297,33.9975,-0.0038029,-0.00501197,0.0,0 STARLINK-4602,1 53629U 22104AT  22279.58334491 -.00501197  00000-0 -38029-2 0  9992,2 53629  53.2170  92.7134 0001044  95.0297  33.9975 15.73084690  1305,6728.224,91.54,350.791,349.38699999999994,0.0
53629.0,STARLINK-4602,PAYLOAD,2022-10-06 22:42:55,15.72703728,8.909999999999997e-05,53.2172,90.9189,85.729,300.6661,-0.0082746,-0.01025842,0.0,0 STARLINK-4602,1 53629U 22104AT  22279.94646991 -.01025842  00000-0 -82746-2 0  9997,2 53629  53.2172  90.9189 0000891  85.7290 300.6661 15.72703728  1300,6729.31,91.562,351.775,350.576,0.0
53629.0,STARLINK-4602,PAYLOAD,2022-10-07 00:00:00,15.72606362,9.46e-05,53.2172,90.6538,87.2831,242.4052,-0.0086216,-0.01060549,0.0,0 STARLINK-4602,1 53629U 22104AT  22280.00001157 -.01060549  00000-0 -86216-2 0  9994,2 53629  53.2172  90.6538 0000946  87.2831 242.4052 15.72606362  6302,6729.5880000000025,91.568,352.09,350.81699999999995,0.0
53629.0,STARLINK-4602,PAYLOAD,2022-10-07 14:00:01,15.71268675,0.0001171999999999,53.2171,87.7711,52.1349,340.5079,-0.0090369,-0.01051024,0.0,0 STARLINK-4602,1 53629U 22104AT  22280.58334491 -.01051024  00000-0 -90369-2 0  9999,2 53629  53.2171  87.7711 0001172  52.1349 340.5079 15.71268675  1302,6733.406999999997,91.646,356.061,354.483,0.0
53629.0,STARLINK-4602,PAYLOAD,2022-10-07 22:00:00,15.7050663,0.0001175,53.2172,86.12899999999998,76.6156,42.1713,-0.0092773,-0.01045367,0.0,0 STARLINK-4602,1 53629U 22104AT  22280.91667824 -.01045367  00000-0 -92773-2 0  9999,2 53629  53.2172  86.1290 0001175  76.6156  42.1713 15.70506630  6454,6735.585,91.69,358.241,356.659,0.0
53629.0,STARLINK-4602,PAYLOAD,2022-10-08 14:00:01,15.68995069,0.0001078,53.217,82.8451,74.1392,214.1968,-0.0099962,-0.01056024,0.0,0 STARLINK-4602,1 53629U 22104AT  22281.58334491 -.01056024  00000-0 -99962-2 0  9993,2 53629  53.2170  82.8451 0001078  74.1392 214.1968 15.68995069  6550,6739.91,91.778,362.502,361.049,0.0
53629.0,STARLINK-4602,PAYLOAD,2022-10-08 22:00:00,15.68233406,0.0001085,53.217,81.2084,58.4829,313.2596,-0.010275,-0.0105216,0.0,0 STARLINK-4602,1 53629U 22104AT  22281.91667824 -.01052160  00000-0 -10275-1 0  9995,2 53629  53.2170  81.2084 0001085  58.4829 313.2596 15.68233406  1309,6742.093000000003,91.823,364.689,363.226,0.0
53629.0,STARLINK-4602,PAYLOAD,2022-10-09 14:00:01,15.66716153,0.0001435,53.2173,77.9356,49.4731,126.3452,-0.010962,-0.01054573,0.0,0 STARLINK-4602,1 53629U 22104AT  22282.58334491 -.01054573  00000-0 -10962-1 0  9993,2 53629  53.2173  77.9356 0001435  49.4731 126.3452 15.66716153  6714,6746.445,91.912,369.278,367.342,0.0
53629.0,STARLINK-4602,PAYLOAD,2022-10-09 22:00:00,15.65951591,0.0001406999999999,53.2172,76.3039,46.8691,209.6189,-0.011207,-0.01046086,0.0,0 STARLINK-4602,1 53629U 22104AT  22282.91667824 -.01046086  00000-0 -11207-1 0  9992,2 53629  53.2172  76.3039 0001407  46.8691 209.6189 15.65951591  1307,6748.64,91.957,371.455,369.556,0.0
53629.0,STARLINK-4602,PAYLOAD,2022-10-10 14:00:01,15.64435435,0.0001403,53.2174,73.0428,42.5134,12.5738,-0.011975,-0.01051016,0.0,0 STARLINK-4602,1 53629U 22104AT  22283.58334491 -.01051016  00000-0 -11975-1 0  9998,2 53629  53.2174  73.0428 0001403  42.5134  12.5738 15.64435435  6877,6753.0,92.046,375.812,373.917,0.0
53629.0,STARLINK-4602,PAYLOAD,2022-10-10 22:00:01,15.63673441,0.0001315999999999,53.2172,71.4165,54.9322,78.15100000000002,-0.012282,-0.01046209,0.0,0 STARLINK-4602,1 53629U 22104AT  22283.91668981 -.01046209  00000-0 -12282-1 0  9999,2 53629  53.2172  71.4165 0001316  54.9322  78.1510 15.63673441  1303,6755.194,92.091,377.948,376.17,0.0
53629.0,STARLINK-4602,PAYLOAD,2022-10-11 14:00:01,15.62155384,0.0001283,53.2176,68.1667,56.0686,230.0729,-0.013057,-0.01063651,0.0,0 STARLINK-4602,1 53629U 22104AT  22284.58334491 -.01063651  00000-0 -13057-1 0  9990,2 53629  53.2176  68.1667 0001283  56.0686 230.0729 15.62155384  7022,6759.569,92.18,382.301,380.567,0.0
53629.0,STARLINK-4602,PAYLOAD,2022-10-11 22:00:00,15.61400555,0.0001406999999999,53.2169,66.5461,40.3926,320.9385,-0.013525,-0.01069249,0.0,0 STARLINK-4602,1 53629U 22104AT  22284.91667824 -.01069249  00000-0 -13525-1 0  9995,2 53629  53.2169  66.5461 0001407  40.3926 320.9385 15.61400555  1314,6761.748000000001,92.225,384.564,382.661,0.0
53629.0,STARLINK-4602,PAYLOAD,2022-10-12 06:00:00,15.60635357,0.0001311,53.2173,64.9237,46.9757,28.64,-0.013834,-0.01062295,0.0,0 STARLINK-4602,1 53629U 22104AT  22285.25001157 -.01062295  00000-0 -13834-1 0  9991,2 53629  53.2173  64.9237 0001311  46.9757  28.6400 15.60635357  7135,6763.958000000001,92.27,386.709,384.936,0.0
53629.0,STARLINK-4602,PAYLOAD,2022-10-12 14:00:01,15.59874858,0.0001485,53.2174,63.307,49.7197,99.2627,-0.014212,-0.01060031,0.0,0 STARLINK-4602,1 53629U 22104AT  22285.58334491 -.01060031  00000-0 -14212-1 0  9994,2 53629  53.2174  63.3070 0001485  49.7197  99.2627 15.59874858  1302,6766.156,92.315,389.026,387.016,0.0
53629.0,STARLINK-4602,PAYLOAD,2022-10-12 22:00:00,15.5911823,0.0001428,53.217,61.6914,51.358,170.0775,-0.014693,-0.01064139,0.0,0 STARLINK-4602,1 53629U 22104AT  22285.91667824 -.01064139  00000-0 -14693-1 0  9996,2 53629  53.2170  61.6914 0001428  51.3580 170.0775 15.59118230  1305,6768.345,92.36,391.176,389.24300000000005,0.0
53629.0,STARLINK-4602,PAYLOAD,2022-10-13 14:00:01,15.57599291,0.0001416,53.2173,58.4639,41.301,322.3062,-0.0155639999999999,-0.01063989,0.0,0 STARLINK-4602,1 53629U 22104AT  22286.58334491 -.01063989  00000-0 -15564-1 0  9991,2 53629  53.2173  58.4639 0001416  41.3010 322.3062 15.57599291  1309,6772.744000000002,92.45,395.568,393.65,0.0
53629.0,STARLINK-4602,PAYLOAD,2022-10-13 20:00:01,15.57027367,0.0001401,53.2174,57.2565,41.3064,284.7388,-0.01583,-0.01059521,0.0,0 STARLINK-4602,1 53629U 22104AT  22286.83335648 -.01059521  00000-0 -15830-1 0  9997,2 53629  53.2174  57.2565 0001401  41.3064 284.7388 15.57027367  7373,6774.403,92.484,397.217,395.319,0.0
53629.0,STARLINK-4602,PAYLOAD,2022-10-13 22:00:00,15.5683897,0.0001535,53.2171,56.8536,37.5801,35.7438,-0.015982,-0.01061952,0.0,0 STARLINK-4602,1 53629U 22104AT  22286.91667824 -.01061952  00000-0 -15982-1 0  9999,2 53629  53.2171  56.8536 0001535  37.5801  35.7438 15.56838970  1303,6774.949000000001,92.495,397.854,395.774,0.0
53629.0,STARLINK-4602,PAYLOAD,2022-10-14 14:00:01,15.55317169,0.0001693,53.2175,53.6374,42.2279,167.7927,-0.016841,-0.01057687,0.0,0 STARLINK-4602,1 53629U 22104AT  22287.58334491 -.01057687  00000-0 -16841-1 0  9999,2 53629  53.2175  53.6374 0001693  42.2279 167.7927 15.55317169  1309,6779.368,92.586,402.381,400.085,0.0
